#  2009   4   27   9   33   40.419   -5.37598   103.288   23.2282   0   0   0   0.73737   2
  LWLI   16.38   1   P                              
  LWLI   27.58   1   S                              
  MNAI   19.18   1   P                              
  MNAI   34.58   1   S                              
  KASI   21.58   1   P                              
  KASI   36.18   1   S                              
  KSI   30.88   1   P                              
  KSI   54.78   1   S                              
  BLSI   33.08   1   P                              
  BLSI   56.88   1   S                              
  CGJI   42.58   1   P                              
  CGJI   72.88   1   S                              
  SBJI   47.08   1   P                              
  SBJI   81.08   1   S                              
  SKJI   55.88   1   P                              
  DBJI   56.98   1   P                              
  CBJI   61.38   1   P                              
  CISI   74.58   1   P                              
  CLJI   94.58   1   P                              
  UGM   111.78   1   P                              
  PCJI   120.28   1   P  